{"type":"FeatureCollection","features":[{"type":"Feature","id":1,"geometry":{"type":"Polygon","coordinates":[[[-119.2139965400482,40.791687181995037],[-119.21443593541863,40.792286625700932],[-119.21452361092068,40.792249590403337],[-119.21461092608043,40.792212064288492],[-119.21415943525196,40.791617833083151],[-119.2140781559613,40.791652735384929],[-119.2139965400482,40.791687181995037]]]},"properties":{"OBJECTID":1,"class":"in city","Shape_Length":607.25848333036254,"Shape_Area":13406.4446689417}},{"type":"Feature","id":2,"geometry":{"type":"Polygon","coordinates":[[[-119.21639175340067,40.794851925195836],[-119.21683394712493,40.795450184083826],[-119.21692360646146,40.795411947366269],[-119.2170129812646,40.795373328790404],[-119.21656145115691,40.79477911181656],[-119.21647673327929,40.794815695475506],[-119.21639175340067,40.794851925195836]]]},"properties":{"OBJECTID":2,"class":"in city","Shape_Length":610.89717911812863,"Shape_Area":13861.7224141775}},{"type":"Feature","id":3,"geometry":{"type":"Polygon","coordinates":[[[-119.19678136668135,40.778601361341217],[-119.19682668713654,40.778539333835717],[-119.19687260569256,40.778477562110801],[-119.19609092060163,40.778134389866459],[-119.19604154999374,40.778200748078127],[-119.1959928248483,40.778267380986918],[-119.19678136668135,40.778601361341217]]]},"properties":{"OBJECTID":3,"class":"in city","Shape_Length":607.25791279241002,"Shape_Area":13406.484707637333}},{"type":"Feature","id":4,"geometry":{"type":"Polygon","coordinates":[[[-119.19261834529067,40.776780793102461],[-119.19266600968743,40.776716211901011],[-119.19271414066938,40.776651830651566],[-119.19193250312138,40.776308632840319],[-119.19188169602212,40.776376553264171],[-119.19183138865715,40.776444688953973],[-119.19261834529067,40.776780793102461]]]},"properties":{"OBJECTID":4,"class":"in city","Shape_Length":610.8978747533024,"Shape_Area":13861.77081928905}},{"type":"Feature","id":5,"geometry":{"type":"Polygon","coordinates":[[[-119.19815715302359,40.775930291575023],[-119.19809333231275,40.775881765412016],[-119.19802951287954,40.775833238312941],[-119.19796520867091,40.775882955749296],[-119.19790133668421,40.775932992864462],[-119.19783789810425,40.775983348758736],[-119.19777490359174,40.776034026135278],[-119.19771234604107,40.776085014188112],[-119.19765023848171,40.776136318322138],[-119.19758857499187,40.77618793313453],[-119.19752736386405,40.776239855925269],[-119.1974666062827,40.776292089396627],[-119.19740630343424,40.776344622743437],[-119.19754242507489,40.776434764303723],[-119.19760190688041,40.776382940407906],[-119.19766183986903,40.776331415487043],[-119.19772221811698,40.77628019404245],[-119.19778304162412,40.776229276073387],[-119.19784430565137,40.776178665180836],[-119.1979060078291,40.776128364065308],[-119.19796814578771,40.776078374526925],[-119.19803071834245,40.776028697465435],[-119.19809372193913,40.775979335581312],[-119.19815715302359,40.775930291575023]]]},"properties":{"OBJECTID":5,"class":"in city","Shape_Length":604.6130731390889,"Shape_Area":12615.095605417049}},{"type":"Feature","id":6,"geometry":{"type":"Polygon","coordinates":[[[-119.19476208483643,40.773348650513505],[-119.19412394434227,40.772863370094186],[-119.19405386117307,40.772917308037904],[-119.19398414384796,40.772971517033398],[-119.1946292077477,40.773451476150363],[-119.19469547283695,40.773399933659348],[-119.19476208483643,40.773348650513505]]]},"properties":{"OBJECTID":6,"class":"in city","Shape_Length":607.76430323848035,"Shape_Area":13470.129887037103}},{"type":"Feature","id":7,"geometry":{"type":"Polygon","coordinates":[[[-119.20148525578932,40.774931597564056],[-119.20103399893519,40.774337313233566],[-119.20094760440314,40.774376019709457],[-119.20086158877159,40.774415209712373],[-119.20132482683528,40.77500413921139],[-119.20140486547253,40.774967644631424],[-119.20148525578932,40.774931597564056]]]},"properties":{"OBJECTID":7,"class":"in city","Shape_Length":607.25762407877744,"Shape_Area":13406.388139309378}},{"type":"Feature","id":8,"geometry":{"type":"Polygon","coordinates":[[[-119.2045344826392,40.773956064104638],[-119.20430090311189,40.773293248806333],[-119.20420427742263,40.773313641220341],[-119.20410785064273,40.773334572959925],[-119.20435482675265,40.773994574087851],[-119.2044445605648,40.773975066537965],[-119.2045344826392,40.773956064104638]]]},"properties":{"OBJECTID":8,"class":"in city","Shape_Length":607.25797143683678,"Shape_Area":13406.434773545927}},{"type":"Feature","id":9,"geometry":{"type":"Polygon","coordinates":[[[-119.19908467072634,40.771769994219326],[-119.19863345901663,40.771175703781978],[-119.19854479642652,40.771215218749951],[-119.198456426245,40.771255109182427],[-119.19891690610916,40.771845277628451],[-119.19900065227195,40.771807461246794],[-119.19908467072634,40.771769994219326]]]},"properties":{"OBJECTID":9,"class":"in city","Shape_Length":610.89850729872057,"Shape_Area":13861.767397965661}},{"type":"Feature","id":10,"geometry":{"type":"Polygon","coordinates":[[[-119.20329189175565,40.770429886785557],[-119.20305833928974,40.76976707306985],[-119.20296604995922,40.769786361526187],[-119.20287389439142,40.769806014617565],[-119.20311694235326,40.770466851592751],[-119.2032043549063,40.770448196773785],[-119.20329189175565,40.770429886785557]]]},"properties":{"OBJECTID":10,"class":"in city","Shape_Length":603.32246507664331,"Shape_Area":12914.921702011303}},{"type":"Feature","id":11,"geometry":{"type":"Polygon","coordinates":[[[-119.20781188680725,40.773613641123404],[-119.20781188745143,40.772927450372315],[-119.20771161156809,40.772928138257122],[-119.20761134515658,40.772929387967473],[-119.20762523215747,40.773615495002574],[-119.20771855948428,40.773614306505195],[-119.20781188680725,40.773613641123404]]]},"properties":{"OBJECTID":11,"class":"in city","Shape_Length":607.26148980185997,"Shape_Area":13406.846016637455}},{"type":"Feature","id":12,"geometry":{"type":"Polygon","coordinates":[[[-119.20781189095541,40.769194588722264],[-119.20781189159948,40.768508402847033],[-119.20771066889222,40.768508889919147],[-119.20760945210404,40.768509779426786],[-119.2076192909211,40.769195923900952],[-119.20771559093967,40.769195064995195],[-119.20781189095541,40.769194588722264]]]},"properties":{"OBJECTID":12,"class":"in city","Shape_Length":609.43278754946789,"Shape_Area":13678.673190243433}},{"type":"Feature","id":13,"geometry":{"type":"Polygon","coordinates":[[[-119.21233680502164,40.770401476177625],[-119.21257036095247,40.769738662701968],[-119.21247774727269,40.769720292599956],[-119.21238501048558,40.769702288932514],[-119.21216097842593,40.770366998139934],[-119.21224894972846,40.770384063843572],[-119.21233680502164,40.770401476177625]]]},"properties":{"OBJECTID":13,"class":"in city","Shape_Length":603.32295258846477,"Shape_Area":12914.98748712323}},{"type":"Feature","id":14,"geometry":{"type":"Polygon","coordinates":[[[-119.21109420949136,40.773927652218909],[-119.21132779129927,40.773264836260253],[-119.21123069674579,40.773245773718045],[-119.21113341985898,40.773227255001814],[-119.21091329260007,40.773892723093496],[-119.21100383392705,40.773909933748193],[-119.21109420949136,40.773927652218909]]]},"properties":{"OBJECTID":14,"class":"in city","Shape_Length":607.25776997460105,"Shape_Area":13406.427061338945}},{"type":"Feature","id":15,"geometry":{"type":"Polygon","coordinates":[[[-119.21415785736305,40.774876708853952],[-119.21460911478957,40.774282425832311],[-119.21452181562562,40.774244911527035],[-119.21443415650981,40.774207884346893],[-119.21399498914047,40.77480737724931],[-119.21407659317026,40.774841814344157],[-119.21415785736305,40.774876708853952]]]},"properties":{"OBJECTID":15,"class":"in city","Shape_Length":607.2583589609626,"Shape_Area":13406.444499515601}},{"type":"Feature","id":16,"geometry":{"type":"Polygon","coordinates":[[[-119.216558446655,40.771715107681437],[-119.21700965775267,40.771120818552987],[-119.21692645040292,40.771084854584323],[-119.21684299918491,40.771049219257399],[-119.21640034192686,40.77164721267264],[-119.21647950912595,40.771681004408947],[-119.216558446655,40.771715107681437]]]},"properties":{"OBJECTID":16,"class":"in city","Shape_Length":603.32252424426304,"Shape_Area":12914.920315366615}},{"type":"Feature","id":17,"geometry":{"type":"Polygon","coordinates":[[[-119.21752750782629,40.776996196877391],[-119.21766458761115,40.776906898913943],[-119.21760284995858,40.77685228428242],[-119.2175405865046,40.776798017254571],[-119.21747779843412,40.776744098729914],[-119.21741449167115,40.776690534110138],[-119.21735066266284,40.776637327897234],[-119.21728632088595,40.77658448008949],[-119.21722146989511,40.776531995188343],[-119.21715611087484,40.776479872292306],[-119.21709025093351,40.776428116802975],[-119.21702389125598,40.77637673052044],[-119.21689624905942,40.776473783004249],[-119.21696163135927,40.776524417518402],[-119.21702652220968,40.776575414935728],[-119.21709091687235,40.776626776157926],[-119.21715481297737,40.77667849578301],[-119.21721820578585,40.77673057111064],[-119.21728109174379,40.776783001241498],[-119.21734346966564,40.776835780773446],[-119.21740533244369,40.776888909707864],[-119.21746668007681,40.776942381742124],[-119.21752750782629,40.776996196877391]]]},"properties":{"OBJECTID":17,"class":"in city","Shape_Length":620.85976646203778,"Shape_Area":13021.224440647749}},{"type":"Feature","id":18,"geometry":{"type":"Polygon","coordinates":[[[-119.22090397323227,40.77327102771951],[-119.2215421135875,40.77278574775233],[-119.22147113533049,40.772732482494177],[-119.22139980544551,40.772679497288934],[-119.22076866893664,40.773170039124132],[-119.22083648743157,40.77322039924853],[-119.22090397323227,40.77327102771951]]]},"properties":{"OBJECTID":18,"class":"in city","Shape_Length":607.76942097747781,"Shape_Area":13470.766089691862}},{"type":"Feature","id":19,"geometry":{"type":"Polygon","coordinates":[[[-119.22314340480411,40.776772008835756],[-119.22392992046632,40.776435313032373],[-119.22388302223543,40.776371878388041],[-119.2238356882166,40.776308630187835],[-119.22305404958291,40.776651828129189],[-119.22309893147256,40.776711829765198],[-119.22314340480411,40.776772008835756]]]},"properties":{"OBJECTID":19,"class":"in city","Shape_Length":603.32334526665795,"Shape_Area":12914.972431195825}},{"type":"Feature","id":20,"geometry":{"type":"Polygon","coordinates":[[[-119.21898682413246,40.778601359494942],[-119.21977536705391,40.778267379009428],[-119.21972664188931,40.778200746108752],[-119.21967727126231,40.778134387905304],[-119.21889558508562,40.778477560279718],[-119.21894150365925,40.778539331096496],[-119.21898682413246,40.778601359494942]]]},"properties":{"OBJECTID":20,"class":"in city","Shape_Length":607.2584843092859,"Shape_Area":13406.490502532875}},{"type":"Feature","id":21,"geometry":{"type":"Polygon","coordinates":[[[-119.22019064606147,40.780943939265576],[-119.22106606041268,40.780776472023227],[-119.22104167994006,40.78070252306204],[-119.22101658402227,40.780628712853229],[-119.22014466334699,40.780806408130253],[-119.22016798755566,40.780875109279428],[-119.22019064606147,40.780943939265576]]]},"properties":{"OBJECTID":21,"class":"in city","Shape_Length":607.25816736484785,"Shape_Area":13406.47348158296}},{"type":"Feature","id":22,"geometry":{"type":"Polygon","coordinates":[[[-119.22482861155565,40.779994664579661],[-119.22570299997174,40.779824175327747],[-119.22567929441998,40.779753675244415],[-119.22565510324534,40.779683269782652],[-119.2247832132272,40.77986099832922],[-119.22480613980692,40.779927785948452],[-119.22482861155565,40.779994664579661]]]},"properties":{"OBJECTID":22,"class":"in city","Shape_Length":603.32342183624257,"Shape_Area":12914.992496371638}},{"type":"Feature","id":23,"geometry":{"type":"Polygon","coordinates":[[[-119.22637025769883,40.783447286535079],[-119.22727294793002,40.783454623274181],[-119.22727409601941,40.783377668204913],[-119.22727471454763,40.783300712323133],[-119.22637197279602,40.783300860556785],[-119.22637136640418,40.783374074856901],[-119.22637025769883,40.783447286535079]]]},"properties":{"OBJECTID":23,"class":"in city","Shape_Length":609.43148282467268,"Shape_Area":13678.545457465954}},{"type":"Feature","id":24,"geometry":{"type":"Polygon","coordinates":[[[-119.22055588186569,40.783443536154707],[-119.22145852465985,40.78345400259218],[-119.22146015348689,40.78337777512732],[-119.22146104306005,40.783301543245976],[-119.22055829297891,40.783301646001185],[-119.22055743098579,40.783372593742129],[-119.22055588186569,40.783443536154707]]]},"properties":{"OBJECTID":24,"class":"in city","Shape_Length":607.2589147923477,"Shape_Area":13406.484917388105}},{"type":"Feature","id":25,"geometry":{"type":"Polygon","coordinates":[[[-119.22005755038728,40.785929815872656],[-119.22092590515004,40.786117503781732],[-119.22095343488991,40.78604419644666],[-119.22098025250955,40.785970737000653],[-119.22010819669744,40.785793233631473],[-119.22008320412355,40.785861594959194],[-119.22005755038728,40.785929815872656]]]},"properties":{"OBJECTID":25,"class":"in city","Shape_Length":607.2581918824377,"Shape_Area":13406.452457827731}},{"type":"Feature","id":26,"geometry":{"type":"Polygon","coordinates":[[[-119.22469896214828,40.786870484408986],[-119.22556843733626,40.787055170044354],[-119.22559428323052,40.786985105469263],[-119.22561964684621,40.786914937404354],[-119.22474757226563,40.786737471829717],[-119.22472349353154,40.786804024915192],[-119.22469896214828,40.786870484408986]]]},"properties":{"OBJECTID":26,"class":"in city","Shape_Length":603.32327402530439,"Shape_Area":12915.012444069407}},{"type":"Feature","id":28,"geometry":{"type":"Polygon","coordinates":[[[-119.21872951919097,40.788233329853028],[-119.21950439485111,40.78858545737522],[-119.21955595248384,40.788520064263885],[-119.21960687373483,40.788454383934464],[-119.21882495348436,40.788111366304953],[-119.21877753200594,40.788172481335046],[-119.21872951919097,40.788233329853028]]]},"properties":{"OBJECTID":28,"class":"in city","Shape_Length":607.25818937069062,"Shape_Area":13406.453926856657}},{"type":"Feature","id":29,"geometry":{"type":"Polygon","coordinates":[[[-119.22077256821201,40.793323397469848],[-119.22140409457485,40.793813791183261],[-119.22147542426856,40.793760791206026],[-119.22154639477334,40.793707512972951],[-119.22090786563002,40.793222381528899],[-119.22084038643442,40.793273020522818],[-119.22077256821201,40.793323397469848]]]},"properties":{"OBJECTID":29,"class":"in city","Shape_Length":607.76337330512536,"Shape_Area":13470.076052127239}},{"type":"Feature","id":30,"geometry":{"type":"Polygon","coordinates":[[[-119.21684728059081,40.791108722649575],[-119.21696588227714,40.791212203119308],[-119.21703500516975,40.791166361395277],[-119.21710372626076,40.791120172969777],[-119.21717204910522,40.791073643246271],[-119.21723996066908,40.791026766823506],[-119.21730746569287,40.790979554507814],[-119.21737455469696,40.790931999997163],[-119.21744123005206,40.790884111396593],[-119.21750748820352,40.790835888707043],[-119.21757332322689,40.790787330128801],[-119.21763873867823,40.790738447368732],[-119.21751104182401,40.790641415909441],[-119.21744651371341,40.790689635757623],[-119.2173815660345,40.790737530524069],[-119.21731620352625,40.790785097506102],[-119.21725042855815,40.7908323349019],[-119.21718424468445,40.790879240008962],[-119.21711765308994,40.790925811926002],[-119.2170506573289,40.790972047950589],[-119.21698326214054,40.791017946280569],[-119.21691546752497,40.791063506014815],[-119.21684728059081,40.791108722649575]]]},"properties":{"OBJECTID":30,"class":"in city","Shape_Length":604.61305525733485,"Shape_Area":12615.078637725501}},{"type":"Feature","id":31,"geometry":{"type":"Polygon","coordinates":[[[-119.19553012281254,40.781192380529632],[-119.19557893594023,40.781202370481942],[-119.19564465327615,40.78101684840253],[-119.19559584027458,40.781006857577218],[-119.19553012281254,40.781192380529632]]]},"properties":{"OBJECTID":31,"class":"2/10","Shape_Length":167.99996958589989,"Shape_Area":979.99913428322373}},{"type":"Feature","id":32,"geometry":{"type":"Polygon","coordinates":[[[-119.19084984691811,40.780315410456154],[-119.19089865870201,40.780325402389444],[-119.19096438819378,40.780139882949371],[-119.19091557653609,40.780129890143073],[-119.19084984691811,40.780315410456154]]]},"properties":{"OBJECTID":32,"class":"2/10","Shape_Length":167.99996958327065,"Shape_Area":979.99913416409424}},{"type":"Feature","id":33,"geometry":{"type":"Polygon","coordinates":[[[-119.21048173319627,40.792629963472216],[-119.21049481314144,40.79266708080074],[-119.21073900962577,40.79261738101804],[-119.21072592955436,40.792580262816372],[-119.21048173319627,40.792629963472216]]]},"properties":{"OBJECTID":33,"class":"2/10","Shape_Length":167.99983288679749,"Shape_Area":979.99717750134994}},{"type":"Feature","id":34,"geometry":{"type":"Polygon","coordinates":[[[-119.21171969219846,40.796151698713985],[-119.21173277352432,40.796188815879411],[-119.2119769819891,40.796139113506761],[-119.2119639005369,40.796101995468241],[-119.21171969219846,40.796151698713985]]]},"properties":{"OBJECTID":34,"class":"2/10","Shape_Length":167.99983287767338,"Shape_Area":979.99717723596279}},{"type":"Feature","id":35,"geometry":{"type":"Polygon","coordinates":[[[-119.20407425150054,40.780719596273926],[-119.20411110442922,40.7807458983796],[-119.20428411809823,40.780605835647805],[-119.20424726754813,40.780579531795794],[-119.20407425150054,40.780719596273926]]]},"properties":{"OBJECTID":35,"class":"playa","Shape_Length":168.00022837812259,"Shape_Area":979.99833597259169}},{"type":"Feature","id":36,"geometry":{"type":"Polygon","coordinates":[[[-119.20571894359729,40.783222509862924],[-119.20571880374587,40.783260935971477],[-119.20597156758768,40.783261466308062],[-119.20597170847813,40.78322304109971],[-119.20571894359729,40.783222509862924]]]},"properties":{"OBJECTID":36,"class":"man","Shape_Length":167.99965516223489,"Shape_Area":979.99294000136035}},{"type":"Feature","id":37,"geometry":{"type":"Polygon","coordinates":[[[-119.21117499682779,40.786113367967438],[-119.21120904779931,40.786141772327909],[-119.21139589061941,40.786012369577506],[-119.21136184200381,40.785983964370978],[-119.21117499682779,40.786113367967438]]]},"properties":{"OBJECTID":37,"class":"playa","Shape_Length":168.00040213225634,"Shape_Area":980.02289996555623}},{"type":"Feature","id":38,"geometry":{"type":"Polygon","coordinates":[[[-119.19881148915709,40.787697078159411],[-119.19881212134126,40.787735501588763],[-119.19906488233894,40.787733102422486],[-119.19906425237869,40.787694678994669],[-119.19881148915709,40.787697078159411]]]},"properties":{"OBJECTID":38,"class":"temple","Shape_Length":167.99986806909189,"Shape_Area":980.00760785284433}},{"type":"Feature","id":39,"geometry":{"type":"Polygon","coordinates":[[[-119.19439959401296,40.796783641127412],[-119.1942847898729,40.796716996266696],[-119.19425409742799,40.796747532113415],[-119.19436890158975,40.7968141779048],[-119.19439959401296,40.796783641127412]]]},"properties":{"OBJECTID":39,"class":null,"Shape_Length":107.99960896935468,"Shape_Area":559.99282662896758}},{"type":"Feature","id":40,"geometry":{"type":"Polygon","coordinates":[[[-119.18853776491768,40.791735656862507],[-119.18846559649953,40.791640551247937],[-119.18842180030229,40.791659748796057],[-119.1884939674936,40.791754855337999],[-119.18853776491768,40.791735656862507]]]},"properties":{"OBJECTID":40,"class":null,"Shape_Length":107.99985693415917,"Shape_Area":559.99645908128628}},{"type":"Feature","id":41,"geometry":{"type":"Polygon","coordinates":[[[-119.20672890924463,40.798691860679703],[-119.20673675778596,40.798593231121231],[-119.20665023281667,40.798589253640827],[-119.20664238533271,40.79868788319353],[-119.20672890924463,40.798691860679703]]]},"properties":{"OBJECTID":41,"class":null,"Shape_Length":120.0001622730864,"Shape_Area":864.00218114235849}},{"type":"Feature","id":42,"geometry":{"type":"Polygon","coordinates":[[[-119.20356075515426,40.800324654908295],[-119.20358526476707,40.800227617391641],[-119.20350013434201,40.800215199947445],[-119.20347562460978,40.8003122374462],[-119.20356075515426,40.800324654908295]]]},"properties":{"OBJECTID":42,"class":null,"Shape_Length":119.99943503188086,"Shape_Area":863.99293452518862}},{"type":"Feature","id":43,"geometry":{"type":"Polygon","coordinates":[[[-119.20142588318001,40.797917291121166],[-119.20146719376396,40.797823601198893],[-119.20138500394536,40.797802670853386],[-119.20134369325885,40.797896360746599],[-119.20142588318001,40.797917291121166]]]},"properties":{"OBJECTID":43,"class":null,"Shape_Length":120.00030586385432,"Shape_Area":864.00465817328586}},{"type":"Feature","id":44,"geometry":{"type":"Polygon","coordinates":[[[-119.18548623701288,40.777749452508964],[-119.1856105400222,40.777778341192708],[-119.18563587703473,40.777715346178823],[-119.18551157413188,40.77768645752208],[-119.18548623701288,40.777749452508964]]]},"properties":{"OBJECTID":44,"class":null,"Shape_Length":119.99996342225791,"Shape_Area":864.00137626491664}},{"type":"Feature","id":45,"geometry":{"type":"Polygon","coordinates":[[[-119.18391903579858,40.777291354088788],[-119.18379501779847,40.777261766652963],[-119.18376906920895,40.777324617059733],[-119.1838930873144,40.777354204523142],[-119.18391903579858,40.777291354088788]]]},"properties":{"OBJECTID":45,"class":null,"Shape_Length":119.99992498619611,"Shape_Area":863.99863958261244}},{"type":"Feature","id":46,"geometry":{"type":"Polygon","coordinates":[[[-119.22201609906114,40.789671658950546],[-119.22279261968249,40.79002169835811],[-119.22284204183411,40.789958450859167],[-119.22289101243153,40.78989499358098],[-119.2221090583874,40.789551998296332],[-119.22206279501462,40.78961192946236],[-119.22201609906114,40.789671658950546]]]},"properties":{"OBJECTID":46,"class":"in city","Shape_Length":604.23864022384873,"Shape_Area":13029.225736695864}}]}